OBJECT_NAME,OBJECT_ID,EPOCH,MEAN_MOTION,ECCENTRICITY,INCLINATION,RA_OF_ASC_NODE,ARG_OF_PERICENTER,MEAN_ANOMALY,EPHEMERIS_TYPE,CLASSIFICATION_TYPE,NORAD_CAT_ID,ELEMENT_SET_NO,REV_AT_EPOCH,BSTAR,MEAN_MOTION_DOT,MEAN_MOTION_DDOT
LEMUR-2-FINNIAN,2025-276DX,2026-06-14T03:29:58.625088,15.00344181,.0008827,97.5282,236.2337,98.3917,261.8308,0,U,66782,999,1954,.58607E-3,.7305E-4,0
LEMUR-2-STARLIGHT,2025-276DY,2026-06-14T03:59:19.442400,14.99014944,.0015258,97.5277,235.9077,136.3457,223.8976,0,U,66783,999,2974,.43483E-3,.5227E-4,0
LEMUR-2-TARTIFLETTE,2025-276DZ,2026-06-14T03:57:13.007232,14.99046348,.0014013,97.5280,235.9127,142.7843,217.4354,0,U,66784,999,2974,.47638E-3,.5735E-4,0
LEMUR-2-VUKASIN,2025-276EA,2026-06-14T03:51:50.687712,15.00339077,.0006252,97.5317,236.1980,131.2126,228.9637,0,U,66785,999,2969,.47808E-3,.5944E-4,0
LEMUR-2-HOTSPUR-TOM,2025-276EB,2026-06-14T03:46:11.616096,14.98930758,.0015557,97.5272,235.8870,136.6848,223.5602,0,U,66786,999,2967,.59187E-3,.7122E-4,0
LEMUR-2-MYRA,2025-276EC,2026-06-14T03:00:45.049824,15.00204600,.001622,97.5224,236.1068,151.5689,208.6423,0,U,66787,999,2975,.60548E-3,.7536E-4,0
LEMUR-2 FIKRETDENGIZ,2026-004A,2026-06-13T23:23:11.330880,14.88304433,.0009774,97.8008,163.5820,142.1022,218.0884,0,U,67363,999,2280,.3872E-3,.3529E-4,0
TWILIGHT-1 OBJECT B,2026-004B,2026-06-13T22:19:38.211168,14.87692301,.0009755,97.8061,163.5551,133.5529,226.6499,0,U,67364,999,2280,.19428E-3,.1716E-4,0
LEMUR-2-MARIO-SOUSA,2026-004C,2026-06-13T19:46:34.858848,14.88490837,.00094168,97.7984,163.4301,142.8433,217.3437,0,U,67365,999,2279,.50112895E-3,.4605E-4,0
LEMUR-2-SONNENBLUME,2026-004E,2026-06-13T22:57:15.830208,14.88301780,.000894,97.7979,163.5462,144.4357,215.7457,0,U,67367,999,2281,.31801E-3,.2888E-4,0
LEMUR-2-WOBLER,2026-004F,2026-06-13T22:48:30.475008,14.88497836,.0009384,97.8033,163.6593,134.4094,225.7893,0,U,67368,999,2281,.44474E-3,.4081E-4,0
LEMUR-2-GRAM-E-SUE,2026-004H,2026-06-14T00:11:42.603936,14.88459045,.0008009,97.7966,163.6120,144.8531,215.3216,0,U,67370,999,2282,.29999E-3,.2731E-4,0
LEMUR-2-KATIE,2026-004AA,2026-06-13T23:58:13.269216,14.90029506,.0004797,97.8027,164.0517,100.2135,259.9624,0,U,67387,999,2283,.38934E-3,.3703E-4,0
LEMUR-2-HCS-BAZUS,2026-004AB,2026-06-13T23:56:55.314816,14.90041162,.0004348,97.8013,164.0318,96.3928,263.7785,0,U,67388,999,2283,.54885E-3,.5245E-4,0
