LEMUR-2-FINNIAN         
1 66782U 25276DX  26165.14581742  .00007305  00000+0  58607-3 0  9996
2 66782  97.5282 236.2337 0008827  98.3917 261.8308 15.00344181 19546
LEMUR-2-STARLIGHT       
1 66783U 25276DY  26165.16619725  .00005227  00000+0  43483-3 0  9999
2 66783  97.5277 235.9077 0015258 136.3457 223.8976 14.99014944 29746
LEMUR-2-TARTIFLETTE     
1 66784U 25276DZ  26165.16473388  .00005735  00000+0  47638-3 0  9993
2 66784  97.5280 235.9127 0014013 142.7843 217.4354 14.99046348 29747
LEMUR-2-VUKASIN         
1 66785U 25276EA  26165.16100333  .00005944  00000+0  47808-3 0  9992
2 66785  97.5317 236.1980 0006252 131.2126 228.9637 15.00339077 29694
LEMUR-2-HOTSPUR-TOM     
1 66786U 25276EB  26165.15707889  .00007122  00000+0  59187-3 0  9994
2 66786  97.5272 235.8870 0015557 136.6848 223.5602 14.98930758 29677
LEMUR-2-MYRA            
1 66787U 25276EC  26165.12552141  .00007536  00000+0  60548-3 0  9993
2 66787  97.5224 236.1068 0016220 151.5689 208.6423 15.00204600 29753
LEMUR-2 FIKRETDENGIZ    
1 67363U 26004A   26164.97443670  .00003529  00000+0  38720-3 0  9997
2 67363  97.8008 163.5820 0009774 142.1022 218.0884 14.88304433 22804
TWILIGHT-1 OBJECT B     
1 67364U 26004B   26164.93030337  .00001716  00000+0  19428-3 0  9996
2 67364  97.8061 163.5551 0009755 133.5529 226.6499 14.87692301 22800
LEMUR-2-MARIO-SOUSA     
1 67365U 26004C   26164.82401457  .00004605  00000+0  50113-3 0  9996
2 67365  97.7984 163.4301 0009416 142.8433 217.3437 14.88490837 22795
LEMUR-2-SONNENBLUME     
1 67367U 26004E   26164.95643322  .00002888  00000+0  31801-3 0  9995
2 67367  97.7979 163.5462 0008940 144.4357 215.7457 14.88301780 22819
LEMUR-2-WOBLER          
1 67368U 26004F   26164.95035272  .00004081  00000+0  44474-3 0  9992
2 67368  97.8033 163.6593 0009384 134.4094 225.7893 14.88497836 22811
LEMUR-2-GRAM-E-SUE      
1 67370U 26004H   26165.00813199  .00002731  00000+0  29999-3 0  9999
2 67370  97.7966 163.6120 0008009 144.8531 215.3216 14.88459045 22823
LEMUR-2-KATIE           
1 67387U 26004AA  26164.99876469  .00003703  00000+0  38934-3 0  9992
2 67387  97.8027 164.0517 0004797 100.2135 259.9624 14.90029506 22837
LEMUR-2-HCS-BAZUS       
1 67388U 26004AB  26164.99786244  .00005245  00000+0  54885-3 0  9990
2 67388  97.8013 164.0318 0004348  96.3928 263.7785 14.90041162 22832
